MOVZ ? ? ? P ? 19700101 0001 27.394 GAU 0.045422856 0.0 -0.0059447037 0.0
MOVZ ? ? ? S ? 19700101 0001 33.048 GAU 0.03285657 0.0 0.03037826 0.0
ETVZ ? ? ? P ? 19700101 0001 28.246 GAU 0.10798129 0.0 0.013244832 0.0
ETVZ ? ? ? S ? 19700101 0001 35.755 GAU 0.08214142 0.0 0.013468279 0.0
NTVZ ? ? ? P ? 19700101 0001 29.317 GAU 0.12573114 0.0 -0.008421756 0.0
NTVZ ? ? ? S ? 19700101 0001 36.337 GAU 0.06571314 0.0 0.028740432 0.0
OTVZ ? ? ? P ? 19700101 0001 29.404 GAU 0.03285657 0.0 -0.020780556 0.0
OTVZ ? ? ? S ? 19700101 0001 35.844 GAU 0.049284853 0.0 0.024115443 0.0
SNVZ ? ? ? P ? 19700101 0001 29.913 GAU 0.04731346 0.0 0.003004087 0.0
SNVZ ? ? ? S ? 19700101 0001 35.544 GAU 0.10267678 0.0 0.011965936 0.0
KRHZ ? ? ? P ? 19700101 0001 30.601 GAU 0.057042655 0.0 -0.039436422 0.0
KRHZ ? ? ? S ? 19700101 0001 39.663 GAU 0.12459211 0.0 0.07623164 0.0
BKZ ? ? ? P ? 19700101 0001 31.088 GAU 0.06959204 0.0 -0.2315502 0.0
BKZ ? ? ? S ? 19700101 0001 39.688 GAU 0.09094844 0.0 0.14482136 0.0
KWHZ ? ? ? P ? 19700101 0001 31.135 GAU 0.015845181 0.0 0.006454667 0.0
KWHZ ? ? ? S ? 19700101 0001 38.506 GAU 0.070970185 0.0 -0.0583929 0.0
MCHZ ? ? ? P ? 19700101 0001 34.231 GAU 0.034225594 0.0 -0.017978327 0.0
MCHZ ? ? ? S ? 19700101 0001 45.826 GAU 0.054760948 0.0 -0.011062284 0.0
TMVZ ? ? ? S ? 19700101 0001 36.002 GAU 0.04107071 0.0 -0.02429719 0.0
MRHZ ? ? ? S ? 19700101 0001 42.868 GAU 0.028318861 0.0 -0.019106297 0.0
NMHZ ? ? ? S ? 19700101 0001 50.104 GAU 0.10875436 0.0 -0.10063656 0.0

